start=new Date('2023-04-13T00:00:00.000Z').valueOf();
sats=[{"OBJECT_NAME":"STARLINK-2053","OBJECT_ID":"2021-012AV","NORAD_CAT_ID":"47663","MEAN_MOTION":"15.06446586","CLASSIFICATION_TYPE":"U","RCS_SIZE":"LARGE","EPHEMERIS_TYPE":"0","COUNTRY_CODE":"US","FILE":"3886349","PERIAPSIS":"546.320","CENTER_NAME":"EARTH","PERIOD":"95.589","REF_FRAME":"TEME","RA_OF_ASC_NODE":"61.2245","SITE":"AFETR","SEMIMAJOR_AXIS":"6925.206","GP_ID":"229980084","TLE_LINE2":"2 47663  53.0545  61.2245 0001084  80.9504 279.1607 15.06446586121257","BSTAR":"0.00161180000000","ELEMENT_SET_NO":"999","OBJECT_TYPE":"PAYLOAD","MEAN_ELEMENT_THEORY":"SGP4","INCLINATION":"53.0545","MEAN_ANOMALY":"279.1607","LAUNCH_DATE":"2021-02-16","ARG_OF_PERICENTER":"80.9504","TLE_LINE1":"1 47663U 21012AV  23102.29150305  .00023838  00000-0  16118-2 0  9998","APOAPSIS":"547.821","MEAN_MOTION_DOT":"0.00023838","TIME_SYSTEM":"UTC","EPOCH":"2023-04-12T06:59:45.863520","REV_AT_EPOCH":"12125","DECAY_DATE":null,"MEAN_MOTION_DDOT":"0.0000000000000","ECCENTRICITY":"0.00010840"},{"ECCENTRICITY":"0.00014580","MEAN_MOTION_DDOT":"0.0000000000000","DECAY_DATE":null,"EPOCH":"2023-04-12T10:16:04.974240","REV_AT_EPOCH":"12016","TIME_SYSTEM":"UTC","MEAN_MOTION_DOT":"-0.00014922","APOAPSIS":"548.271","TLE_LINE1":"1 47664U 21012AW  23102.42783535 -.00014922  00000-0 -98535-3 0  9991","LAUNCH_DATE":"2021-02-16","ARG_OF_PERICENTER":"89.6231","MEAN_ANOMALY":"270.4925","INCLINATION":"53.0522","OBJECT_TYPE":"PAYLOAD","MEAN_ELEMENT_THEORY":"SGP4","ELEMENT_SET_NO":"999","TLE_LINE2":"2 47664  53.0522 140.2954 0001458  89.6231 270.4925 15.06384592120160","BSTAR":"-0.00098535000000","GP_ID":"229981333","SITE":"AFETR","SEMIMAJOR_AXIS":"6925.396","CENTER_NAME":"EARTH","PERIOD":"95.593","RA_OF_ASC_NODE":"140.2954","REF_FRAME":"TEME","FILE":"3886349","PERIAPSIS":"546.251","COUNTRY_CODE":"US","EPHEMERIS_TYPE":"0","CLASSIFICATION_TYPE":"U","RCS_SIZE":"LARGE","MEAN_MOTION":"15.06384592","NORAD_CAT_ID":"47664","OBJECT_ID":"2021-012AW","OBJECT_NAME":"STARLINK-2054"},{"TLE_LINE1":"1 47665U 21012AX  23102.47438712 -.00002589  00000-0 -15502-3 0  9990","ARG_OF_PERICENTER":"88.4746","LAUNCH_DATE":"2021-02-16","TIME_SYSTEM":"UTC","MEAN_MOTION_DOT":"-0.00002589","APOAPSIS":"548.181","DECAY_DATE":null,"REV_AT_EPOCH":"12023","EPOCH":"2023-04-12T11:23:07.047168","MEAN_MOTION_DDOT":"0.0000000000000","ECCENTRICITY":"0.00013590","BSTAR":"-0.00015502000000","TLE_LINE2":"2 47665  53.0519 135.1323 0001359  88.4746 271.6398 15.06391519120230","MEAN_ELEMENT_THEORY":"SGP4","OBJECT_TYPE":"PAYLOAD","ELEMENT_SET_NO":"999","INCLINATION":"53.0519","MEAN_ANOMALY":"271.6398","COUNTRY_CODE":"US","EPHEMERIS_TYPE":"0","PERIAPSIS":"546.298","FILE":"3886349","SEMIMAJOR_AXIS":"6925.375","SITE":"AFETR","PERIOD":"95.593","RA_OF_ASC_NODE":"135.1323","REF_FRAME":"TEME","CENTER_NAME":"EARTH","GP_ID":"229981571","OBJECT_ID":"2021-012AX","OBJECT_NAME":"STARLINK-2056","NORAD_CAT_ID":"47665","MEAN_MOTION":"15.06391519","CLASSIFICATION_TYPE":"U","RCS_SIZE":"LARGE"},{"MEAN_MOTION":"15.06392050","RCS_SIZE":"LARGE","CLASSIFICATION_TYPE":"U","OBJECT_NAME":"STARLINK-2057","OBJECT_ID":"2021-012AY","NORAD_CAT_ID":"47666","RA_OF_ASC_NODE":"135.4606","PERIOD":"95.593","REF_FRAME":"TEME","CENTER_NAME":"EARTH","SEMIMAJOR_AXIS":"6925.373","SITE":"AFETR","GP_ID":"229980335","EPHEMERIS_TYPE":"0","COUNTRY_CODE":"US","FILE":"3886349","PERIAPSIS":"546.195","INCLINATION":"53.0520","MEAN_ANOMALY":"271.4962","BSTAR":"0.00002384300000","TLE_LINE2":"2 47666  53.0520 135.4606 0001506  88.6199 271.4962 15.06392050120234","ELEMENT_SET_NO":"999","MEAN_ELEMENT_THEORY":"SGP4","OBJECT_TYPE":"PAYLOAD","REV_AT_EPOCH":"12023","EPOCH":"2023-04-12T11:17:51.287136","DECAY_DATE":null,"ECCENTRICITY":"0.00015060","MEAN_MOTION_DDOT":"0.0000000000000","ARG_OF_PERICENTER":"88.6199","LAUNCH_DATE":"2021-02-16","TLE_LINE1":"1 47666U 21012AY  23102.47073249  .00000074  00000-0  23843-4 0  9994","APOAPSIS":"548.281","MEAN_MOTION_DOT":"0.00000074","TIME_SYSTEM":"UTC"},{"NORAD_CAT_ID":"47667","OBJECT_NAME":"STARLINK-2058","OBJECT_ID":"2021-012AZ","RCS_SIZE":"LARGE","CLASSIFICATION_TYPE":"U","MEAN_MOTION":"15.06382361","PERIAPSIS":"545.988","FILE":"3886349","EPHEMERIS_TYPE":"0","COUNTRY_CODE":"US","GP_ID":"229980585","PERIOD":"95.593","REF_FRAME":"TEME","RA_OF_ASC_NODE":"160.4498","CENTER_NAME":"EARTH","SEMIMAJOR_AXIS":"6925.403","SITE":"AFETR","ELEMENT_SET_NO":"999","MEAN_ELEMENT_THEORY":"SGP4","OBJECT_TYPE":"PAYLOAD","BSTAR":"0.00027240000000","TLE_LINE2":"2 47667  53.0552 160.4498 0001847 100.3422 259.7775 15.06382361119857","MEAN_ANOMALY":"259.7775","INCLINATION":"53.0552","APOAPSIS":"548.547","MEAN_MOTION_DOT":"0.00003776","TIME_SYSTEM":"UTC","ARG_OF_PERICENTER":"100.3422","LAUNCH_DATE":"2021-02-16","TLE_LINE1":"1 47667U 21012AZ  23102.39283539  .00003776  00000-0  27240-3 0  9997","MEAN_MOTION_DDOT":"0.0000000000000","ECCENTRICITY":"0.00018470","REV_AT_EPOCH":"11985","EPOCH":"2023-04-12T09:25:40.977696","DECAY_DATE":null},{"GP_ID":"229980833","SEMIMAJOR_AXIS":"6925.380","SITE":"AFETR","PERIOD":"95.593","REF_FRAME":"TEME","RA_OF_ASC_NODE":"140.5595","CENTER_NAME":"EARTH","PERIAPSIS":"546.252","FILE":"3886349","COUNTRY_CODE":"US","EPHEMERIS_TYPE":"0","CLASSIFICATION_TYPE":"U","RCS_SIZE":"LARGE","MEAN_MOTION":"15.06389591","NORAD_CAT_ID":"47668","OBJECT_ID":"2021-012BA","OBJECT_NAME":"STARLINK-2059","ECCENTRICITY":"0.00014350","MEAN_MOTION_DDOT":"0.0000000000000","DECAY_DATE":null,"REV_AT_EPOCH":"12015","EPOCH":"2023-04-12T08:51:10.494144","TIME_SYSTEM":"UTC","APOAPSIS":"548.239","MEAN_MOTION_DOT":"-0.00003139","TLE_LINE1":"1 47668U 21012BA  23102.36887146 -.00003139  00000-0 -19195-3 0  9994","ARG_OF_PERICENTER":"80.0712","LAUNCH_DATE":"2021-02-16","MEAN_ANOMALY":"280.0438","INCLINATION":"53.0517","MEAN_ELEMENT_THEORY":"SGP4","OBJECT_TYPE":"PAYLOAD","ELEMENT_SET_NO":"999","BSTAR":"-0.00019195000000","TLE_LINE2":"2 47668  53.0517 140.5595 0001435  80.0712 280.0438 15.06389591120155"},{"MEAN_ANOMALY":"259.2326","INCLINATION":"53.0541","MEAN_ELEMENT_THEORY":"SGP4","OBJECT_TYPE":"PAYLOAD","ELEMENT_SET_NO":"999","BSTAR":"0.00359280000000","TLE_LINE2":"2 47669  53.0541  42.7827 0009360 100.9730 259.2326 15.36743997121018","MEAN_MOTION_DDOT":"0.0000000000000","ECCENTRICITY":"0.00093600","DECAY_DATE":null,"REV_AT_EPOCH":"12101","EPOCH":"2023-04-12T12:46:32.443680","TIME_SYSTEM":"UTC","MEAN_MOTION_DOT":"0.00132953","APOAPSIS":"462.144","TLE_LINE1":"1 47669U 21012BB  23102.53231995  .00132953  00000-0  35928-2 0  9995","ARG_OF_PERICENTER":"100.9730","LAUNCH_DATE":"2021-02-16","CLASSIFICATION_TYPE":"U","RCS_SIZE":"LARGE","MEAN_MOTION":"15.36743997","NORAD_CAT_ID":"47669","OBJECT_ID":"2021-012BB","OBJECT_NAME":"STARLINK-2060","GP_ID":"229986922","SEMIMAJOR_AXIS":"6833.882","SITE":"AFETR","PERIOD":"93.705","REF_FRAME":"TEME","RA_OF_ASC_NODE":"42.7827","CENTER_NAME":"EARTH","PERIAPSIS":"449.351","FILE":"3886391","COUNTRY_CODE":"US","EPHEMERIS_TYPE":"0"},{"OBJECT_TYPE":"PAYLOAD","MEAN_ELEMENT_THEORY":"SGP4","ELEMENT_SET_NO":"999","TLE_LINE2":"2 47670  53.0521 140.4933 0000929  86.4334 273.6761 15.06396494120141","BSTAR":"0.00026754000000","MEAN_ANOMALY":"273.6761","INCLINATION":"53.0521","TIME_SYSTEM":"UTC","APOAPSIS":"547.868","MEAN_MOTION_DOT":"0.00003706","TLE_LINE1":"1 47670U 21012BC  23102.38361699  .00003706  00000-0  26754-3 0  9996","LAUNCH_DATE":"2021-02-16","ARG_OF_PERICENTER":"86.4334","MEAN_MOTION_DDOT":"0.0000000000000","ECCENTRICITY":"0.00009290","DECAY_DATE":null,"EPOCH":"2023-04-12T09:12:24.507936","REV_AT_EPOCH":"12014","NORAD_CAT_ID":"47670","OBJECT_ID":"2021-012BC","OBJECT_NAME":"STARLINK-2062","CLASSIFICATION_TYPE":"U","RCS_SIZE":"LARGE","MEAN_MOTION":"15.06396494","FILE":"3886349","PERIAPSIS":"546.581","COUNTRY_CODE":"US","EPHEMERIS_TYPE":"0","GP_ID":"229979835","SITE":"AFETR","SEMIMAJOR_AXIS":"6925.359","CENTER_NAME":"EARTH","REF_FRAME":"TEME","PERIOD":"95.592","RA_OF_ASC_NODE":"140.4933"},{"TIME_SYSTEM":"UTC","MEAN_MOTION_DOT":"0.00013272","APOAPSIS":"548.248","TLE_LINE1":"1 47671U 21012BD  23102.36519036  .00013272  00000-0  90880-3 0  9995","ARG_OF_PERICENTER":"69.6921","LAUNCH_DATE":"2021-02-16","MEAN_MOTION_DDOT":"0.0000000000000","ECCENTRICITY":"0.00013890","DECAY_DATE":null,"REV_AT_EPOCH":"12015","EPOCH":"2023-04-12T08:45:52.447104","MEAN_ELEMENT_THEORY":"SGP4","OBJECT_TYPE":"PAYLOAD","ELEMENT_SET_NO":"999","BSTAR":"0.00090880000000","TLE_LINE2":"2 47671  53.0522 140.5779 0001389  69.6921 290.4217 15.06376348120158","MEAN_ANOMALY":"290.4217","INCLINATION":"53.0522","FILE":"3886349","PERIAPSIS":"546.324","COUNTRY_CODE":"US","EPHEMERIS_TYPE":"0","GP_ID":"229980085","SEMIMAJOR_AXIS":"6925.421","SITE":"AFETR","PERIOD":"95.594","RA_OF_ASC_NODE":"140.5779","REF_FRAME":"TEME","CENTER_NAME":"EARTH","NORAD_CAT_ID":"47671","OBJECT_ID":"2021-012BD","OBJECT_NAME":"STARLINK-2064","CLASSIFICATION_TYPE":"U","RCS_SIZE":"LARGE","MEAN_MOTION":"15.06376348"},{"MEAN_MOTION":"15.06402711","RCS_SIZE":"LARGE","CLASSIFICATION_TYPE":"U","OBJECT_ID":"2021-012BE","OBJECT_NAME":"STARLINK-2065","NORAD_CAT_ID":"47672","SEMIMAJOR_AXIS":"6925.340","SITE":"AFETR","RA_OF_ASC_NODE":"128.5880","PERIOD":"95.592","REF_FRAME":"TEME","CENTER_NAME":"EARTH","GP_ID":"229986488","COUNTRY_CODE":"US","EPHEMERIS_TYPE":"0","PERIAPSIS":"546.288","FILE":"3886391","INCLINATION":"53.0529","MEAN_ANOMALY":"289.3657","BSTAR":"0.00070898000000","TLE_LINE2":"2 47672  53.0529 128.5880 0001324  70.7475 289.3657 15.06402711119833","MEAN_ELEMENT_THEORY":"SGP4","OBJECT_TYPE":"PAYLOAD","ELEMENT_SET_NO":"999","DECAY_DATE":null,"REV_AT_EPOCH":"11983","EPOCH":"2023-04-12T19:24:07.779168","ECCENTRICITY":"0.00013240","MEAN_MOTION_DDOT":"0.0000000000000","TLE_LINE1":"1 47672U 21012BE  23102.80842337  .00010295  00000-0  70898-3 0  9997","ARG_OF_PERICENTER":"70.7475","LAUNCH_DATE":"2021-02-16","TIME_SYSTEM":"UTC","MEAN_MOTION_DOT":"0.00010295","APOAPSIS":"548.122"}];
